EXO-0                   
1 59175U 23174DK  26068.71046781  .00011582  00000+0  36716-3 0  9992
2 59175  97.3864 148.9039 0009878 157.1125 203.0559 15.32821991129797
STARLINK-36088          
1 66941U 25286S   26068.08685588  .00021980  00000+0  75228-3 0  9995
2 66941  53.1617   1.3021 0001170  59.9837 300.1280 15.30189307 15320
